STARLINK-2741           
1 48684U 21044AY  26068.44792036  .00000167  00000+0  17769-4 0  9995
2 48684  53.1596  79.0490 0001247  97.7321 262.3821 15.30197658264295
TRANSPORTER-12 OBJECT AZ
1 62656U 25009AZ  26068.71026235  .00016057  00000+0  54903-3 0  9991
2 62656  97.3981 151.9913 0000987  45.3581 314.7740 15.30349724 63792
