[{"OBJECT_NAME":"STARLINK-2741","OBJECT_ID":"2021-044AY","EPOCH":"2026-03-09T10:45:00.319104","MEAN_MOTION":15.30197658,"ECCENTRICITY":0.00012471,"INCLINATION":53.1596,"RA_OF_ASC_NODE":79.049,"ARG_OF_PERICENTER":97.7321,"MEAN_ANOMALY":262.3821,"EPHEMERIS_TYPE":0,"CLASSIFICATION_TYPE":"U","NORAD_CAT_ID":48684,"ELEMENT_SET_NO":999,"REV_AT_EPOCH":26429,"BSTAR":1.7768774e-5,"MEAN_MOTION_DOT":1.67e-6,"MEAN_MOTION_DDOT":0},{"OBJECT_NAME":"TRANSPORTER-12 OBJECT AZ","OBJECT_ID":"2025-009AZ","EPOCH":"2026-03-09T17:02:46.667040","MEAN_MOTION":15.30349724,"ECCENTRICITY":9.87e-5,"INCLINATION":97.3981,"RA_OF_ASC_NODE":151.9913,"ARG_OF_PERICENTER":45.3581,"MEAN_ANOMALY":314.774,"EPHEMERIS_TYPE":0,"CLASSIFICATION_TYPE":"U","NORAD_CAT_ID":62656,"ELEMENT_SET_NO":999,"REV_AT_EPOCH":6379,"BSTAR":0.00054902545,"MEAN_MOTION_DOT":0.00016057,"MEAN_MOTION_DDOT":0}]
